ONEWEB-0216             
1 48801U 21045AL  23308.45368950  .00000217  00000+0  54301-3 0  9994
2 48801  87.8962  89.4887 0001559  84.6580 275.4728 13.15544046118646
ONEWEB-0239             
1 48802U 21045AM  23308.45846926  .00000328  00000+0  83843-3 0  9995
2 48802  87.8973  89.4435 0000662  78.5311 281.5894 13.15549962118684
ONEWEB-0249             
1 48967U 21060A   23308.61831694  .00000046  00000+0  87927-4 0  9993
2 48967  87.9081  58.9523 0001648 101.2637 258.8679 13.16593722113874
ONEWEB-0250             
1 48968U 21060B   23308.54654416  .00000095  00000+0  21560-3 0  9995
2 48968  87.9079  58.9515 0001328 100.6578 259.4702 13.16597235113849
ONEWEB-0252             
1 48970U 21060D   23308.57400094  .00000008  00000+0 -12876-4 0  9998
2 48970  87.9079  58.9541 0001725  94.9448 265.1880 13.16595743113914
ONEWEB-0253             
1 48971U 21060E   23308.33544287  .00000112  00000+0  26064-3 0  9994
2 48971  87.9006  59.0489 0001410  89.8993 270.2300 13.16594322113812
ONEWEB-0254             
1 48972U 21060F   23308.57187661 -.00000014  00000+0 -71056-4 0  9995
2 48972  87.9080  58.9440 0001401  93.1338 266.9953 13.16597342113845
ONEWEB-0255             
1 48973U 21060G   23308.60988072 -.00001140  00000+0 -30152-2 0  9996
2 48973  87.9081  58.9723 0002406 105.5323 254.6073 13.16602494113920
